NORAD_CAT_ID,OBJECT_NAME,OBJECT_TYPE,EPOCH,MEAN_MOTION,ECCENTRICITY,INCLINATION,RA_OF_ASC_NODE,ARG_OF_PERICENTER,MEAN_ANOMALY,BSTAR,MEAN_MOTION_DOT,MEAN_MOTION_DDOT,TLE_LINE0,TLE_LINE1,TLE_LINE2,SEMIMAJOR_AXIS,PERIOD,APOGEE,PERIGEE,DECAYED
52550.0,STARLINK-3965,PAYLOAD,2022-09-01 14:00:01,15.08810603,0.0002037,53.2169,138.174,62.0728,161.2688,0.0029411999999999,0.00046795,0.0,0 STARLINK-3965,1 52550U 22051T   22244.58335648  .00046795  00000-0  29412-2 0  9994,2 52550  53.2169 138.1740 0002037  62.0728 161.2688 15.08810603  1304,6917.97,95.439,541.244,538.4259999999998,0.0
52550.0,STARLINK-3965,PAYLOAD,2022-09-01 22:00:00,15.08848267,0.0002142,53.2169,136.6791,60.4881,174.3708,-0.001068,-0.0001725,0.0,0 STARLINK-3965,1 52550U 22051T   22244.91667824 -.00017250  00000-0 -10680-2 0  9998,2 52550  53.2169 136.6791 0002142  60.4881 174.3708 15.08848267  1307,6917.855,95.437,541.202,538.238,0.0
52550.0,STARLINK-3965,PAYLOAD,2022-09-02 14:00:01,15.08830693,0.0002006999999999,53.2164,133.6849,64.2748,193.7848,0.00021567,3.145e-05,0.0,0 STARLINK-3965,1 52550U 22051T   22245.58334491  .00003145  00000-0  21567-3 0  9996,2 52550  53.2164 133.6849 0002007  64.2748 193.7848 15.08830693  1301,6917.909000000002,95.438,541.1619999999998,538.385,0.0
52550.0,STARLINK-3965,PAYLOAD,2022-09-02 22:00:01,15.08831412,0.0002096,53.2164,132.19,60.6611,209.0443,-0.0010203,-0.00016486,0.0,0 STARLINK-3965,1 52550U 22051T   22245.91668981 -.00016486  00000-0 -10203-2 0  9995,2 52550  53.2164 132.1900 0002096  60.6611 209.0443 15.08831412  1302,6917.906999999997,95.438,541.222,538.322,0.0
52550.0,STARLINK-3965,PAYLOAD,2022-09-03 14:00:01,15.08816099,0.0002029999999999,53.2162,129.1958,65.203,227.6118,0.0031447,0.00050083,0.0,0 STARLINK-3965,1 52550U 22051T   22246.58334491  .00050083  00000-0  31447-2 0  9997,2 52550  53.2162 129.1958 0002030  65.2030 227.6118 15.08816099  1302,6917.953,95.439,541.2230000000002,538.414,0.0
52550.0,STARLINK-3965,PAYLOAD,2022-09-03 22:00:00,15.0885133,0.0002150999999999,53.2163,127.7011,61.7563,242.6474,-0.00070236,-0.00011453,0.0,0 STARLINK-3965,1 52550U 22051T   22246.91667824 -.00011453  00000-0 -70236-3 0  9993,2 52550  53.2163 127.7011 0002151  61.7563 242.6474 15.08851330  1302,6917.846,95.437,541.1990000000002,538.2230000000002,0.0
52550.0,STARLINK-3965,PAYLOAD,2022-09-04 14:00:01,15.08826517,0.0001995,53.2166,124.7066,64.8444,262.862,0.0030147,0.00048001,0.0,0 STARLINK-3965,1 52550U 22051T   22247.58335648  .00048001  00000-0  30147-2 0  9996,2 52550  53.2166 124.7066 0001995  64.8444 262.8620 15.08826517 17964,6917.922,95.438,541.1669999999998,538.406,0.0
52550.0,STARLINK-3965,PAYLOAD,2022-09-04 20:00:01,15.08875526,0.0002020999999999,53.2168,123.5857,61.9669,184.3688,-0.0031778,-0.00050558,0.0,0 STARLINK-3965,1 52550U 22051T   22247.83334491 -.00050558  00000-0 -31778-2 0  9992,2 52550  53.2168 123.5857 0002021  61.9669 184.3688 15.08875526  1306,6917.772,95.435,541.035,538.239,0.0
52550.0,STARLINK-3965,PAYLOAD,2022-09-05 06:00:00,15.08853864,0.000197,53.2168,121.7153,56.3692,294.4821,-0.00071497,-0.00011653,0.0,0 STARLINK-3965,1 52550U 22051T   22248.25001157 -.00011653  00000-0 -71497-3 0  9995,2 52550  53.2168 121.7153 0001970  56.3692 294.4821 15.08853864 18065,6917.8380000000025,95.437,541.066,538.34,0.0
52550.0,STARLINK-3965,PAYLOAD,2022-09-05 14:00:01,15.08848831,0.0001831,53.2172,120.2176,62.1717,300.289,-0.00030419,-5.127e-05,0.0,0 STARLINK-3965,1 52550U 22051T   22248.58334491 -.00005127  00000-0 -30419-3 0  9999,2 52550  53.2172 120.2176 0001831  62.1717 300.2890 15.08848831  1307,6917.853,95.437,540.985,538.452,0.0
52550.0,STARLINK-3965,PAYLOAD,2022-09-05 22:00:00,15.08826597,0.0001902,53.2174,118.723,55.7877,318.2762,-0.0018842,-0.0003013999999999,0.0,0 STARLINK-3965,1 52550U 22051T   22248.91667824 -.00030140  00000-0 -18842-2 0  9993,2 52550  53.2174 118.7230 0001902  55.7877 318.2762 15.08826597  1308,6917.920999999999,95.438,541.102,538.471,0.0
52550.0,STARLINK-3965,PAYLOAD,2022-09-06 12:00:00,15.08771313,0.0001659,53.2178,116.103,57.1394,247.1748,0.0035235,0.0005612999999999,0.0,0 STARLINK-3965,1 52550U 22051T   22249.50001157  .00056130  00000-0  35235-2 0  9990,2 52550  53.2178 116.1030 0001659  57.1394 247.1748 15.08771313 18252,6918.09,95.442,541.1030000000002,538.808,0.0
52550.0,STARLINK-3965,PAYLOAD,2022-09-06 14:00:01,15.08782511,0.0001679,53.2178,115.7289,58.6472,338.547,0.002984,0.00047447,0.0,0 STARLINK-3965,1 52550U 22051T   22249.58334491  .00047447  00000-0  29840-2 0  9994,2 52550  53.2178 115.7289 0001679  58.6472 338.5470 15.08782511  1305,6918.056,95.441,541.0830000000002,538.76,0.0
52550.0,STARLINK-3965,PAYLOAD,2022-09-06 22:00:00,15.0880821,0.0001854,53.2179,114.2344,53.7044,355.0325,-0.00035265,-5.891e-05,0.0,0 STARLINK-3965,1 52550U 22051T   22249.91667824 -.00005891  00000-0 -35265-3 0  9998,2 52550  53.2179 114.2344 0001854  53.7044 355.0325 15.08808210  1306,6917.978,95.44,541.125,538.56,0.0
52550.0,STARLINK-3965,PAYLOAD,2022-09-07 04:00:00,15.08813014,0.0001825,53.2177,113.1122,51.1789,276.2203,0.00037639,5.703e-05,0.0,0 STARLINK-3965,1 52550U 22051T   22250.16667824  .00005703  00000-0  37639-3 0  9994,2 52550  53.2177 113.1122 0001825  51.1789 276.2203 15.08813014 18352,6917.9630000000025,95.439,541.09,538.565,0.0
52550.0,STARLINK-3965,PAYLOAD,2022-09-07 14:00:01,15.08809153,0.0001712,53.2181,111.2402,60.3233,11.5364,0.0024015,0.00038107,0.0,0 STARLINK-3965,1 52550U 22051T   22250.58334491  .00038107  00000-0  24015-2 0  9998,2 52550  53.2181 111.2402 0001712  60.3233  11.5364 15.08809153  1302,6917.975,95.44,541.024,538.655,0.0
52550.0,STARLINK-3965,PAYLOAD,2022-09-07 22:00:00,15.08829947,0.0001865,53.218,109.7457,54.9062,28.529,-0.00013624,-2.455e-05,0.0,0 STARLINK-3965,1 52550U 22051T   22250.91667824 -.00002455  00000-0 -13624-3 0  9998,2 52550  53.2180 109.7457 0001865  54.9062  28.5290 15.08829947  1300,6917.911,95.438,541.066,538.486,0.0
52550.0,STARLINK-3965,PAYLOAD,2022-09-08 06:00:00,15.08852689,0.000179,53.2178,108.2487,55.0384,39.9756,-0.0015083,-0.00024221,0.0,0 STARLINK-3965,1 52550U 22051T   22251.25001157 -.00024221  00000-0 -15083-2 0  9992,2 52550  53.2178 108.2487 0001790  55.0384  39.9756 15.08852689 18513,6917.842,95.437,540.945,538.4680000000002,0.0
52550.0,STARLINK-3965,PAYLOAD,2022-09-08 14:00:01,15.08836047,0.0001713,53.2179,106.7513,62.1753,44.4357,0.0019045,0.00030149,0.0,0 STARLINK-3965,1 52550U 22051T   22251.58334491  .00030149  00000-0  19045-2 0  9994,2 52550  53.2179 106.7513 0001713  62.1753  44.4357 15.08836047  1308,6917.892,95.438,540.943,538.572,0.0
52550.0,STARLINK-3965,PAYLOAD,2022-09-08 22:00:00,15.08849661,0.0001834,53.2177,105.2568,55.9494,62.2681,0.00025769,3.816e-05,0.0,0 STARLINK-3965,1 52550U 22051T   22251.91667824  .00003816  00000-0  25769-3 0  9992,2 52550  53.2177 105.2568 0001834  55.9494  62.2681 15.08849661  1300,6917.851,95.437,540.985,538.447,0.0
52550.0,STARLINK-3965,PAYLOAD,2022-09-09 00:00:02,15.08835292,0.0001843,53.2177,104.8828,54.1784,157.0079,0.0022897,0.00036336,0.0,0 STARLINK-3965,1 52550U 22051T   22252.00002315  .00036336  00000-0  22897-2 0  9992,2 52550  53.2177 104.8828 0001843  54.1784 157.0079 15.08835292 18630,6917.895,95.438,541.035,538.485,0.0
52550.0,STARLINK-3965,PAYLOAD,2022-09-09 14:00:01,15.08837906,0.0001603,53.2173,102.2622,62.2745,79.1614,0.0015719,0.00024816,0.0,0 STARLINK-3965,1 52550U 22051T   22252.58334491  .00024816  00000-0  15719-2 0  9993,2 52550  53.2173 102.2622 0001603  62.2745  79.1614 15.08837906  1300,6917.887,95.438,540.861,538.643,0.0
52550.0,STARLINK-3965,PAYLOAD,2022-09-09 22:00:00,15.08842543,0.0001728,53.217,100.7676,55.0657,97.976,0.0009023999999999,0.00014104,0.0,0 STARLINK-3965,1 52550U 22051T   22252.91667824  .00014104  00000-0  90240-3 0  9991,2 52550  53.2170 100.7676 0001728  55.0657  97.9760 15.08842543  1302,6917.873000000001,95.437,540.933,538.5419999999998,0.0
52550.0,STARLINK-3965,PAYLOAD,2022-09-10 06:00:02,15.0887799,0.0001618,53.2166,99.27,56.1335,108.5606,-0.0043661,-0.0006917999999999,0.0,0 STARLINK-3965,1 52550U 22051T   22253.25002315 -.00069180  00000-0 -43661-2 0  9997,2 52550  53.2166  99.2700 0001618  56.1335 108.5606 15.08877990 18816,6917.764,95.435,540.749,538.51,0.0
52550.0,STARLINK-3965,PAYLOAD,2022-09-10 14:00:01,15.08833136,0.0001536,53.2167,97.7729,61.6823,114.5588,0.0010318,0.00016168,0.0,0 STARLINK-3965,1 52550U 22051T   22253.58334491  .00016168  00000-0  10318-2 0  9995,2 52550  53.2167  97.7729 0001536  61.6823 114.5588 15.08833136  1309,6917.901,95.438,540.8290000000002,538.7040000000002,0.0
52550.0,STARLINK-3965,PAYLOAD,2022-09-10 22:00:00,15.08827329,0.0001688,53.2165,96.2782,53.4846,134.3509,0.0013218,0.00020804,0.0,0 STARLINK-3965,1 52550U 22051T   22253.91667824  .00020804  00000-0  13218-2 0  9995,2 52550  53.2165  96.2782 0001688  53.4846 134.3509 15.08827329 18917,6917.919,95.438,540.952,538.616,0.0
52550.0,STARLINK-3965,PAYLOAD,2022-09-11 14:00:01,15.08866256,0.0001657,53.2164,93.2834,62.3814,148.6469,-0.002131,-0.00034067,0.0,0 STARLINK-3965,1 52550U 22051T   22254.58334491 -.00034067  00000-0 -21310-2 0  9990,2 52550  53.2164  93.2834 0001657  62.3814 148.6469 15.08866256  1301,6917.8,95.436,540.811,538.519,0.0
52550.0,STARLINK-3965,PAYLOAD,2022-09-11 22:00:00,15.08820065,0.0001853,53.2164,91.7886,55.2673,167.3782,0.0019402,0.00030709,0.0,0 STARLINK-3965,1 52550U 22051T   22254.91667824  .00030709  00000-0  19402-2 0  9992,2 52550  53.2164  91.7886 0001853  55.2673 167.3782 15.08820065 19070,6917.941,95.439,541.0880000000002,538.524,0.0
52550.0,STARLINK-3965,PAYLOAD,2022-09-12 12:00:00,15.0883672,0.0001661,53.2165,89.1676,60.795,92.1419,0.00025464,3.767e-05,0.0,0 STARLINK-3965,1 52550U 22051T   22255.50001157  .00003767  00000-0  25464-3 0  9999,2 52550  53.2165  89.1676 0001661  60.7950  92.1419 15.08836720 19151,6917.89,95.438,540.904,538.606,0.0
